KAITUO 1B               
1 40912U 15049P   17293.08093505  .00001995  00000-0  10097-3 0  9991
2 40912  97.4528 298.9257 0016918 123.1129 308.4569 15.18061524115239
TIANWANG 1C (TW-1C)     
1 40926U 15051B   17293.10892939  .00009240  00000-0  19754-3 0  9990
2 40926  97.2180 331.7752 0013124  78.1992 338.1470 15.44954404116199
TIANWANG 1B (TW-1B)     
1 40927U 15051C   17293.20745755  .00009112  00000-0  20249-3 0  9994
2 40927  97.2266 331.8312 0013022  86.0893 344.3567 15.43812874116147
TIANWANG 1A (TW-1A)     
1 40928U 15051D   17293.05335142  .00004549  00000-0  12693-3 0  9996
2 40928  97.2170 326.6153 0014316 105.4163 309.5312 15.37143476115878
LAPAN-A2 (IO-86)        
1 40931U 15052B   17293.13784506  .00000804  00000-0  23071-4 0  9995
2 40931   5.9984  61.7966 0012446 214.1283 145.8063 14.76550522111464
LQSAT                   
1 40958U 15057A   17293.17246349  .00000071  00000-0  18839-4 0  9993
2 40958  97.9680   6.2414 0019027  29.8995 330.3308 14.72993913109519
CHUBUSAT-2              
1 41338U 16012B   17292.67571491  .00000525  00000-0  34455-4 0  9997
2 41338  31.0043  41.5751 0013889 212.3837 147.5947 14.99839500 91690
CHUBUSAT-3              
1 41339U 16012C   17292.72022393  .00000566  00000-0  37497-4 0  9990
2 41339  31.0108  40.2420 0013449 219.5605 140.4049 15.00038123 91685
OUFTI-1                 
1 41458U 16025C   17293.17029891  .00001073  00000-0  61409-4 0  9990
2 41458  98.1743 337.8700 0171229 231.3707 127.2084 15.03753307 81354
E-ST@R-II               
1 41459U 16025D   17293.07278260  .00002860  00000-0  15529-3 0  9992
2 41459  98.1722 337.6892 0172953 232.2123 126.3333 15.03561771 81336
AAUSAT 4                
1 41460U 16025E   17293.12239791  .00002977  00000-0  16125-3 0  9998
2 41460  98.1674 337.9336 0164414 229.5739 129.1042 15.04659628 81377
NUSAT 1 (LO-87)         
1 41557U 16033B   17293.22059655  .00002375  00000-0  90778-4 0  9993
2 41557  97.4559  12.7179 0012473 287.7640  72.2238 15.27558830 77519
BEESAT-4                
1 41619U 16040W   17293.12542111  .00002111  00000-0  97401-4 0  9991
2 41619  97.4492 354.2484 0011628 359.7651   0.3577 15.21292521 61584
PRATHAM                 
1 41783U 16059A   17292.85476169  .00000110  00000-0  30721-4 0  9990
2 41783  98.1532 352.8474 0034706 128.7191 231.7123 14.62869823 56824
ALSAT 1N                
1 41789U 16059G   17293.14998429  .00000134  00000-0  34647-4 0  9994
2 41789  98.1536 353.8823 0029635 120.6983 239.7152 14.64089081 56897
NAYIF-1 (EO-88)         
1 42017U 17008BX  17292.59387059  .00002107  00000-0  91158-4 0  9995
2 42017  97.4820 353.7536 0007753 136.0077 224.1778 15.23547781 37424
LILACSAT-1              
1 42725U 98067ME  17293.01591709  .00020317  00000-0  26013-3 0  9992
2 42725  51.6374 133.5476 0005451  66.2662 293.8902 15.59159785 22923
MAX VALIER SAT          
1 42778U 17036P   17292.73025766  .00001477  00000-0  70224-4 0  9990
2 42778  97.4382 351.0362 0012755 184.4112 175.7013 15.20705558 17958
